OBJECT_NAME,OBJECT_ID,EPOCH,MEAN_MOTION,ECCENTRICITY,INCLINATION,RA_OF_ASC_NODE,ARG_OF_PERICENTER,MEAN_ANOMALY,EPHEMERIS_TYPE,CLASSIFICATION_TYPE,NORAD_CAT_ID,ELEMENT_SET_NO,REV_AT_EPOCH,BSTAR,MEAN_MOTION_DOT,MEAN_MOTION_DDOT
LEMUR-2-ROUNDTRIPPER,2025-009DG,2026-07-17T03:57:43.973856,15.04249593,.00044912,97.7249,280.8085,60.2795,299.8877,0,U,62711,999,8213,.30967837E-3,.4246E-4,0
LEMUR-2-MYNAMEISJEFF,2025-009DH,2026-07-16T19:56:37.511808,15.04238210,.00042188,97.7299,280.8736,93.9545,266.2163,0,U,62712,999,8208,.32713731E-3,.4487E-4,0
LEMUR-2-LEIA-PHILIP,2025-052AN,2026-07-17T03:23:34.368864,14.97392123,.00050814,97.6799,89.5842,115.4351,244.7397,0,U,63246,999,7315,.463645E-5,-.4E-7,0
LEMUR-2-LIA-MARTIN,2025-052AQ,2026-07-17T03:14:31.836480,14.98037500,.00051892,97.6861,90.1001,85.6997,274.4819,0,U,63248,999,7316,.13774583E-3,.157E-4,0
LEMUR-2-DELOITTE-1,2025-052BB,2026-07-17T05:59:15.067680,14.97792163,.00025313,97.6884,90.5425,62.2271,297.9208,0,U,63259,999,7319,.20780413E-3,.2382E-4,0
LEMUR-2-EMERSONROSE,2025-052BD,2026-07-17T04:40:35.468544,14.99301194,.00026189,97.6883,91.1066,57.1007,303.0468,0,U,63261,999,7323,.20040749E-3,.2388E-4,0
LEMUR-2-MARACHE-FRAN,2025-052BE,2026-07-17T03:35:17.540448,15.00322436,.00054171,97.6826,91.4309,244.8247,115.2415,0,U,63262,999,7325,.13620794E-3,.1649E-4,0
LEMUR-2-THEFALCONER,2025-052BG,2026-07-17T03:31:06.720384,14.97567389,.00004086,97.6823,90.0298,256.4392,103.6785,0,U,63264,999,7317,.91548459E-4,.1011E-4,0
LEMUR-2-UNTITLED-SC,2025-061A,2026-07-17T04:03:34.172064,15.13653035,.00193981,97.5658,173.3189,156.4933,203.7189,0,U,63351,999,7212,.9841043E-4,.1709E-4,0
LEMUR-2-ESPERANZA,2025-061B,2026-07-16T21:07:06.052224,15.13758598,.00189752,97.5665,173.1323,156.6868,203.5228,0,U,63352,999,7208,.10079804E-3,.1758E-4,0
LEMUR-2-KREMPEL-BRO2,2025-061C,2026-07-16T23:08:53.884320,15.14185528,.00201299,97.5710,173.7874,149.4315,210.8095,0,U,63353,999,7211,.10342611E-3,.1828E-4,0
LEMUR-2-THERMORAPTOR,2025-061D,2026-07-16T21:05:36.426912,15.14268321,.00199027,97.5715,173.7838,148.5683,211.6742,0,U,63354,999,7210,.11743626E-3,.209E-4,0
LEMUR-2-NEUROSPICY,2025-061E,2026-07-17T05:52:24.367008,15.14387869,.0017662,97.5644,173.7506,150.2079,210.0162,0,U,63355,999,7216,.10217538E-3,.1814E-4,0
LEMUR-2-TILLINFINITY,2025-061F,2026-07-16T20:55:50.273760,15.14971898,.00192169,97.5627,173.6916,140.4251,219.8388,0,U,63356,999,7213,.1199754E-3,.218E-4,0
LEMUR-2-KREMPEL-BRO1,2025-061G,2026-07-16T21:58:13.196928,15.14778327,.00198484,97.5628,173.6423,141.6214,218.6435,0,U,63357,999,7213,.90145153E-4,.1612E-4,0
LEMUR-2-LANGER2SPACE,2025-061H,2026-07-16T21:09:50.535360,15.14471760,.00175726,97.5633,173.4112,149.6905,210.5347,0,U,63358,999,7211,.11760438E-3,.2103E-4,0
LEMUR-2-BALTO,2025-052BH,2026-07-16T22:24:34.244352,15.00373082,.00050442,97.6925,91.2085,320.2373,39.8480,0,U,63395,999,7322,.1988074E-3,.2437E-4,0
LEMUR-2-KRISH,2025-135AK,2026-07-17T07:12:08.996832,14.96456213,.00011659,97.7770,312.9769,98.9751,261.1603,0,U,64561,999,5842,.16158042E-3,.1775E-4,0
LEMUR-2-HUBBLE-4,2025-135AP,2026-07-17T06:50:11.829696,14.93689200,.00028312,97.7721,311.8429,156.8302,203.3046,0,U,64565,999,5836,.60593193E-4,.584E-5,0
LEMUR-2-SEJONG-2,2025-135BL,2026-07-17T06:05:14.822592,14.96921078,.00040977,97.7709,313.0761,208.9023,151.1973,0,U,64586,999,5844,.19948563E-3,.2232E-4,0
LEMUR-2-HUBBLE-5,2025-135BT,2026-07-17T07:01:51.475296,14.94216448,.00044555,97.7741,312.5223,226.7198,133.3651,0,U,64840,999,5840,.43281019E-4,.407E-5,0
LEMUR-2-KARENDARRELL,2025-135BU,2026-07-16T20:43:35.068512,15.00513466,.00126269,97.7721,314.0339,99.6140,260.6511,0,U,64841,999,5846,.32900633E-3,.4093E-4,0
LEMUR-2-LUCILLE-ROSE,2025-135BV,2026-07-17T07:17:34.321344,15.00502928,.00151384,97.7708,314.5090,182.7111,177.4033,0,U,65403,999,5315,.26282042E-3,.3258E-4,0
LEMUR-2-AFFIE-WAUWIE,2025-248C,2026-07-17T07:55:40.156896,15.28312820,.00089479,45.3906,311.5300,263.2179,96.7692,0,U,66295,999,3920,.46965452E-3,.12925E-3,0
OTTER SDM,2025-276N,2026-07-17T04:53:34.012032,15.20069960,.00044025,97.4200,271.1864,244.4412,115.6368,0,U,66678,999,3497,.15141375E-3,.32E-4,0
LEMUR-2-STAS-GORBUK,2025-276W,2026-07-16T23:05:54.912768,15.19669071,.00036988,97.4236,271.0004,239.2654,120.8217,0,U,66686,999,3493,.14105098E-3,.2941E-4,0
LEMUR-2-TEODOR,2025-276DG,2026-07-16T17:11:17.628864,15.21346633,.00021993,97.4142,271.0320,87.3498,272.7990,0,U,66768,999,3493,.13584838E-3,.2974E-4,0
LEMUR-2-LAILA,2025-276DQ,2026-07-17T03:30:22.709088,15.21575778,.0002912,97.4163,271.5951,91.7042,268.4528,0,U,66776,999,3500,.14200042E-3,.3133E-4,0
LEMUR-2-CELIJO-SB-PK,2025-276DW,2026-07-16T17:15:11.101536,15.00294496,.0006895,97.5191,267.5216,60.6403,299.5509,0,U,66781,999,2705,.26831763E-3,.3306E-4,0
