LEMUR-2-ROUNDTRIPPER    
1 62711U 25009DG  26198.16509229  .00004246  00000+0  30968-3 0  9997
2 62711  97.7249 280.8085 0004491  60.2795 299.8877 15.04249593 82131
LEMUR-2-MYNAMEISJEFF    
1 62712U 25009DH  26197.83098972  .00004487  00000+0  32714-3 0  9997
2 62712  97.7299 280.8736 0004218  93.9545 266.2163 15.04238210 82087
LEMUR-2-LEIA-PHILIP     
1 63246U 25052AN  26198.14137001 -.00000004  00000+0  46364-5 0  9990
2 63246  97.6799  89.5842 0005081 115.4351 244.7397 14.97392123 73153
LEMUR-2-LIA-MARTIN      
1 63248U 25052AQ  26198.13509070  .00001570  00000+0  13775-3 0  9996
2 63248  97.6861  90.1001 0005189  85.6997 274.4819 14.98037500 73169
LEMUR-2-DELOITTE-1      
1 63259U 25052BB  26198.24947995  .00002382  00000+0  20780-3 0  9998
2 63259  97.6884  90.5425 0002531  62.2271 297.9208 14.97792163 73191
LEMUR-2-EMERSONROSE     
1 63261U 25052BD  26198.19485496  .00002388  00000+0  20041-3 0  9994
2 63261  97.6883  91.1066 0002618  57.1007 303.0468 14.99301194 73231
LEMUR-2-MARACHE-FRAN    
1 63262U 25052BE  26198.14950857  .00001649  00000+0  13621-3 0  9993
2 63262  97.6826  91.4309 0005417 244.8247 115.2415 15.00322436 73255
LEMUR-2-THEFALCONER     
1 63264U 25052BG  26198.14660556  .00001011  00000+0  91548-4 0  9997
2 63264  97.6823  90.0298 0000408 256.4392 103.6785 14.97567389 73176
LEMUR-2-UNTITLED-SC     
1 63351U 25061A   26198.16914551  .00001709  00000+0  98410-4 0  9992
2 63351  97.5658 173.3189 0019398 156.4933 203.7189 15.13653035 72127
LEMUR-2-ESPERANZA       
1 63352U 25061B   26197.87993116  .00001758  00000+0  10080-3 0  9994
2 63352  97.5665 173.1323 0018975 156.6868 203.5228 15.13758598 72080
LEMUR-2-KREMPEL-BRO2    
1 63353U 25061C   26197.96451255  .00001828  00000+0  10343-3 0  9998
2 63353  97.5710 173.7874 0020129 149.4315 210.8095 15.14185528 72115
LEMUR-2-THERMORAPTOR    
1 63354U 25061D   26197.87889383  .00002090  00000+0  11744-3 0  9994
2 63354  97.5715 173.7838 0019902 148.5683 211.6742 15.14268321 72106
LEMUR-2-NEUROSPICY      
1 63355U 25061E   26198.24472647  .00001814  00000+0  10218-3 0  9996
2 63355  97.5644 173.7506 0017662 150.2079 210.0162 15.14387869 72164
LEMUR-2-TILLINFINITY    
1 63356U 25061F   26197.87210965  .00002180  00000+0  11998-3 0  9991
2 63356  97.5627 173.6916 0019216 140.4251 219.8388 15.14971898 72135
LEMUR-2-KREMPEL-BRO1    
1 63357U 25061G   26197.91543052  .00001612  00000+0  90145-4 0  9994
2 63357  97.5628 173.6423 0019848 141.6214 218.6435 15.14778327 72135
LEMUR-2-LANGER2SPACE    
1 63358U 25061H   26197.88183490  .00002103  00000+0  11760-3 0  9998
2 63358  97.5633 173.4112 0017572 149.6905 210.5347 15.14471760 72114
LEMUR-2-BALTO           
1 63395U 25052BH  26197.93372968  .00002437  00000+0  19881-3 0  9997
2 63395  97.6925  91.2085 0005044 320.2373  39.8480 15.00373082 73229
LEMUR-2-KRISH           
1 64561U 25135AK  26198.30010413  .00001775  00000+0  16158-3 0  9999
2 64561  97.7770 312.9769 0001165  98.9751 261.1603 14.96456213 58429
LEMUR-2-HUBBLE-4        
1 64565U 25135AP  26198.28485914  .00000584  00000+0  60593-4 0  9992
2 64565  97.7721 311.8429 0002831 156.8302 203.3046 14.93689200 58360
LEMUR-2-SEJONG-2        
1 64586U 25135BL  26198.25364378  .00002232  00000+0  19949-3 0  9992
2 64586  97.7709 313.0761 0004097 208.9023 151.1973 14.96921078 58440
LEMUR-2-HUBBLE-5        
1 64840U 25135BT  26198.29295689  .00000407  00000+0  43281-4 0  9996
2 64840  97.7741 312.5223 0004455 226.7198 133.3651 14.94216448 58402
LEMUR-2-KARENDARRELL    
1 64841U 25135BU  26197.86360033  .00004093  00000+0  32901-3 0  9996
2 64841  97.7721 314.0339 0012626  99.6140 260.6511 15.00513466 58462
LEMUR-2-LUCILLE-ROSE    
1 65403U 25135BV  26198.30386946  .00003258  00000+0  26282-3 0  9999
2 65403  97.7708 314.5090 0015138 182.7111 177.4033 15.00502928 53150
LEMUR-2-AFFIE-WAUWIE    
1 66295U 25248C   26198.33032589  .00012925  00000+0  46965-3 0  9999
2 66295  45.3906 311.5300 0008947 263.2179  96.7692 15.28312820 39203
OTTER SDM               
1 66678U 25276N   26198.20386588  .00003200  00000+0  15141-3 0  9990
2 66678  97.4200 271.1864 0004402 244.4412 115.6368 15.20069960 34978
LEMUR-2-STAS-GORBUK     
1 66686U 25276W   26197.96244112  .00002941  00000+0  14105-3 0  9997
2 66686  97.4236 271.0004 0003698 239.2654 120.8217 15.19669071 34931
LEMUR-2-TEODOR          
1 66768U 25276DG  26197.71617626  .00002974  00000+0  13585-3 0  9992
2 66768  97.4142 271.0320 0002199  87.3498 272.7990 15.21346633 34936
LEMUR-2-LAILA           
1 66776U 25276DQ  26198.14609617  .00003133  00000+0  14200-3 0  9993
2 66776  97.4163 271.5951 0002912  91.7042 268.4528 15.21575778 35002
LEMUR-2-CELIJO-SB-PK    
1 66781U 25276DW  26197.71887849  .00003306  00000+0  26832-3 0  9992
2 66781  97.5191 267.5216 0006895  60.6403 299.5509 15.00294496 27051
